[{"OBJECT_NAME":"STARLINK-36912","OBJECT_ID":"2026-038A","EPOCH":"2026-03-06T20:00:00.999360","MEAN_MOTION":15.96699545,"ECCENTRICITY":0.0001347,"INCLINATION":97.2753,"RA_OF_ASC_NODE":75.8936,"ARG_OF_PERICENTER":77.7382,"MEAN_ANOMALY":153.7143,"EPHEMERIS_TYPE":0,"CLASSIFICATION_TYPE":"U","NORAD_CAT_ID":67961,"ELEMENT_SET_NO":999,"REV_AT_EPOCH":273,"BSTAR":-0.0037465,"MEAN_MOTION_DOT":-0.01569388,"MEAN_MOTION_DDOT":0.00072827},{"OBJECT_NAME":"STARLINK-36881","OBJECT_ID":"2026-038B","EPOCH":"2026-03-06T20:00:00.999360","MEAN_MOTION":15.96772209,"ECCENTRICITY":0.0001188,"INCLINATION":97.2752,"RA_OF_ASC_NODE":75.8944,"ARG_OF_PERICENTER":78.6334,"MEAN_ANOMALY":155.008,"EPHEMERIS_TYPE":0,"CLASSIFICATION_TYPE":"U","NORAD_CAT_ID":67962,"ELEMENT_SET_NO":999,"REV_AT_EPOCH":273,"BSTAR":-0.0036731,"MEAN_MOTION_DOT":-0.01544961,"MEAN_MOTION_DDOT":0.00070791},{"OBJECT_NAME":"STARLINK-36357","OBJECT_ID":"2026-038C","EPOCH":"2026-03-06T20:00:00.999360","MEAN_MOTION":15.97031656,"ECCENTRICITY":0.0001466,"INCLINATION":97.2749,"RA_OF_ASC_NODE":75.8971,"ARG_OF_PERICENTER":76.4157,"MEAN_ANOMALY":163.1176,"EPHEMERIS_TYPE":0,"CLASSIFICATION_TYPE":"U","NORAD_CAT_ID":67963,"ELEMENT_SET_NO":999,"REV_AT_EPOCH":273,"BSTAR":-0.003663,"MEAN_MOTION_DOT":-0.01562486,"MEAN_MOTION_DDOT":0.00072491},{"OBJECT_NAME":"STARLINK-36349","OBJECT_ID":"2026-038D","EPOCH":"2026-03-06T20:00:00.999360","MEAN_MOTION":15.96908599,"ECCENTRICITY":0.0001445,"INCLINATION":97.2747,"RA_OF_ASC_NODE":75.8954,"ARG_OF_PERICENTER":76.1713,"MEAN_ANOMALY":160.4123,"EPHEMERIS_TYPE":0,"CLASSIFICATION_TYPE":"U","NORAD_CAT_ID":67964,"ELEMENT_SET_NO":999,"REV_AT_EPOCH":273,"BSTAR":-0.0036936,"MEAN_MOTION_DOT":-0.0156497,"MEAN_MOTION_DDOT":0.00072609},{"OBJECT_NAME":"STARLINK-36806","OBJECT_ID":"2026-038E","EPOCH":"2026-03-06T20:00:00.999360","MEAN_MOTION":15.97173448,"ECCENTRICITY":0.0001315,"INCLINATION":97.2743,"RA_OF_ASC_NODE":75.8983,"ARG_OF_PERICENTER":77.6643,"MEAN_ANOMALY":165.2904,"EPHEMERIS_TYPE":0,"CLASSIFICATION_TYPE":"U","NORAD_CAT_ID":67965,"ELEMENT_SET_NO":999,"REV_AT_EPOCH":273,"BSTAR":-0.0036251,"MEAN_MOTION_DOT":-0.01558323,"MEAN_MOTION_DDOT":0.00072243},{"OBJECT_NAME":"STARLINK-36820","OBJECT_ID":"2026-038F","EPOCH":"2026-03-06T20:00:00.999360","MEAN_MOTION":15.97287145,"ECCENTRICITY":0.0001313,"INCLINATION":97.2742,"RA_OF_ASC_NODE":75.8995,"ARG_OF_PERICENTER":84.5035,"MEAN_ANOMALY":161.3168,"EPHEMERIS_TYPE":0,"CLASSIFICATION_TYPE":"U","NORAD_CAT_ID":67966,"ELEMENT_SET_NO":999,"REV_AT_EPOCH":273,"BSTAR":-0.0035621,"MEAN_MOTION_DOT":-0.01540951,"MEAN_MOTION_DDOT":0.00070842},{"OBJECT_NAME":"STARLINK-36819","OBJECT_ID":"2026-038G","EPOCH":"2026-03-06T20:00:00.999360","MEAN_MOTION":15.9742361,"ECCENTRICITY":0.0001297,"INCLINATION":97.2741,"RA_OF_ASC_NODE":75.9009,"ARG_OF_PERICENTER":81.1025,"MEAN_ANOMALY":167.804,"EPHEMERIS_TYPE":0,"CLASSIFICATION_TYPE":"U","NORAD_CAT_ID":67967,"ELEMENT_SET_NO":999,"REV_AT_EPOCH":273,"BSTAR":-0.0035736,"MEAN_MOTION_DOT":-0.01557324,"MEAN_MOTION_DDOT":0.00072353},{"OBJECT_NAME":"STARLINK-36812","OBJECT_ID":"2026-038H","EPOCH":"2026-03-06T20:00:00.999360","MEAN_MOTION":15.97532917,"ECCENTRICITY":0.0001254,"INCLINATION":97.2736,"RA_OF_ASC_NODE":75.9016,"ARG_OF_PERICENTER":84.2959,"MEAN_ANOMALY":167.2551,"EPHEMERIS_TYPE":0,"CLASSIFICATION_TYPE":"U","NORAD_CAT_ID":67968,"ELEMENT_SET_NO":999,"REV_AT_EPOCH":273,"BSTAR":-0.0035514,"MEAN_MOTION_DOT":-0.01556932,"MEAN_MOTION_DDOT":0.00072405},{"OBJECT_NAME":"STARLINK-36709","OBJECT_ID":"2026-038J","EPOCH":"2026-03-06T20:00:00.999360","MEAN_MOTION":15.97798087,"ECCENTRICITY":0.0001303,"INCLINATION":97.2737,"RA_OF_ASC_NODE":75.9046,"ARG_OF_PERICENTER":86.3095,"MEAN_ANOMALY":171.5509,"EPHEMERIS_TYPE":0,"CLASSIFICATION_TYPE":"U","NORAD_CAT_ID":67969,"ELEMENT_SET_NO":999,"REV_AT_EPOCH":273,"BSTAR":-0.0034743,"MEAN_MOTION_DOT":-0.01545588,"MEAN_MOTION_DDOT":0.00071634},{"OBJECT_NAME":"STARLINK-36319","OBJECT_ID":"2026-038K","EPOCH":"2026-03-06T20:00:00.999360","MEAN_MOTION":15.97651068,"ECCENTRICITY":0.0001338,"INCLINATION":97.2736,"RA_OF_ASC_NODE":75.9029,"ARG_OF_PERICENTER":88.5564,"MEAN_ANOMALY":166.1266,"EPHEMERIS_TYPE":0,"CLASSIFICATION_TYPE":"U","NORAD_CAT_ID":67970,"ELEMENT_SET_NO":999,"REV_AT_EPOCH":270,"BSTAR":-0.0034477,"MEAN_MOTION_DOT":-0.01521684,"MEAN_MOTION_DDOT":0.0006948},{"OBJECT_NAME":"STARLINK-36710","OBJECT_ID":"2026-038L","EPOCH":"2026-03-06T20:00:00.999360","MEAN_MOTION":15.97948536,"ECCENTRICITY":0.0001258,"INCLINATION":97.2734,"RA_OF_ASC_NODE":75.9061,"ARG_OF_PERICENTER":88.4748,"MEAN_ANOMALY":173.2474,"EPHEMERIS_TYPE":0,"CLASSIFICATION_TYPE":"U","NORAD_CAT_ID":67971,"ELEMENT_SET_NO":999,"REV_AT_EPOCH":273,"BSTAR":-0.0033708,"MEAN_MOTION_DOT":-0.01512391,"MEAN_MOTION_DDOT":0.00068918},{"OBJECT_NAME":"STARLINK-36894","OBJECT_ID":"2026-038M","EPOCH":"2026-03-06T20:00:00.999360","MEAN_MOTION":15.98083862,"ECCENTRICITY":0.0001361,"INCLINATION":97.273,"RA_OF_ASC_NODE":75.9076,"ARG_OF_PERICENTER":81.1969,"MEAN_ANOMALY":183.7052,"EPHEMERIS_TYPE":0,"CLASSIFICATION_TYPE":"U","NORAD_CAT_ID":67972,"ELEMENT_SET_NO":999,"REV_AT_EPOCH":273,"BSTAR":-0.0033448,"MEAN_MOTION_DOT":-0.01511989,"MEAN_MOTION_DDOT":0.00068986},{"OBJECT_NAME":"STARLINK-36900","OBJECT_ID":"2026-038N","EPOCH":"2026-03-06T20:00:00.999360","MEAN_MOTION":15.98364704,"ECCENTRICITY":0.0001251,"INCLINATION":97.2728,"RA_OF_ASC_NODE":75.9101,"ARG_OF_PERICENTER":81.702,"MEAN_ANOMALY":189.5519,"EPHEMERIS_TYPE":0,"CLASSIFICATION_TYPE":"U","NORAD_CAT_ID":67973,"ELEMENT_SET_NO":999,"REV_AT_EPOCH":273,"BSTAR":-0.0033241,"MEAN_MOTION_DOT":-0.01525926,"MEAN_MOTION_DDOT":0.00070387},{"OBJECT_NAME":"STARLINK-36901","OBJECT_ID":"2026-038P","EPOCH":"2026-03-06T20:00:00.999360","MEAN_MOTION":15.98210601,"ECCENTRICITY":0.0001304,"INCLINATION":97.2728,"RA_OF_ASC_NODE":75.9085,"ARG_OF_PERICENTER":77.7528,"MEAN_ANOMALY":190.1667,"EPHEMERIS_TYPE":0,"CLASSIFICATION_TYPE":"U","NORAD_CAT_ID":67974,"ELEMENT_SET_NO":999,"REV_AT_EPOCH":273,"BSTAR":-0.0033153,"MEAN_MOTION_DOT":-0.01509155,"MEAN_MOTION_DDOT":0.00068841},{"OBJECT_NAME":"STARLINK-36883","OBJECT_ID":"2026-038Q","EPOCH":"2026-03-06T20:00:00.999360","MEAN_MOTION":15.98923732,"ECCENTRICITY":0.0001267,"INCLINATION":97.2721,"RA_OF_ASC_NODE":75.9155,"ARG_OF_PERICENTER":85.8748,"MEAN_ANOMALY":198.2662,"EPHEMERIS_TYPE":0,"CLASSIFICATION_TYPE":"U","NORAD_CAT_ID":67975,"ELEMENT_SET_NO":999,"REV_AT_EPOCH":273,"BSTAR":-0.0032211,"MEAN_MOTION_DOT":-0.01525259,"MEAN_MOTION_DDOT":0.00070764},{"OBJECT_NAME":"STARLINK-36880","OBJECT_ID":"2026-038R","EPOCH":"2026-03-06T20:00:00.999360","MEAN_MOTION":15.98509981,"ECCENTRICITY":0.0001248,"INCLINATION":97.2725,"RA_OF_ASC_NODE":75.9113,"ARG_OF_PERICENTER":87.8384,"MEAN_ANOMALY":186.6597,"EPHEMERIS_TYPE":0,"CLASSIFICATION_TYPE":"U","NORAD_CAT_ID":67976,"ELEMENT_SET_NO":999,"REV_AT_EPOCH":273,"BSTAR":-0.0033164,"MEAN_MOTION_DOT":-0.01534589,"MEAN_MOTION_DDOT":0.00071244}]
